STARLINK-5558           
1 55631U 23021D   26068.71082484  .00001332  00000+0  11942-3 0  9992
2 55631  70.0002 204.3096 0003213 267.5398  92.5393 14.98328248168302
HAWK-9A                 
1 59446U 24066E   26068.43100697  .00002638  00000+0  23459-3 0  9992
2 59446  45.6088  72.7153 0003627 244.6286 115.4219 14.98777479104861
